IRIDIUM 155             
1 43573U 18061E   24363.77724829  .00000823  00000+0  28686-3 0  9997
2 43573  86.3963 280.4033 0001772  84.8208 275.3190 14.34220877336621
IRIDIUM 154             
1 43574U 18061F   24363.61868357  .00000017  00000+0 -10864-5 0  9993
2 43574  86.3968 280.5763 0002232  82.1529 277.9920 14.34214953336646
IRIDIUM 163             
1 43575U 18061G   24363.59965775  .00000017  00000+0 -88238-6 0  9994
2 43575  86.3962 280.5171 0001879  79.7331 280.4077 14.34216507336619
IRIDIUM 156             
1 43576U 18061H   24364.06266338  .00000124  00000+0  37332-4 0  9992
2 43576  86.3963 280.3299 0001784  88.4054 271.7346 14.34214760336660
IRIDIUM 164             
1 43577U 18061J   24364.18317391  .00000788  00000+0  27446-3 0  9992
2 43577  86.3956 280.3101 0002423  87.6682 272.4791 14.34215813336734
IRIDIUM 159             
1 43578U 18061K   24364.22122937  .00000580  00000+0  20003-3 0  9990
2 43578  86.3965 280.2435 0002269  83.6211 276.5244 14.34215954336707
IRIDIUM 180             
1 43922U 19002A   24363.73234795 -.00000082  00000+0 -36410-4 0  9999
2 43922  86.3979 217.3276 0001882  85.4540 274.6871 14.34217563312284
IRIDIUM 176             
1 43923U 19002B   24364.45704719  .00002513  00000+0  39459-3 0  9992
2 43923  86.6103 217.0311 0002825  69.0088 291.1431 14.72250591320574
IRIDIUM 168             
1 43924U 19002C   24364.07483063  .00000694  00000+0  24082-3 0  9991
2 43924  86.3983 217.2465 0002049  83.6786 276.4643 14.34210192312275
IRIDIUM 173             
1 43925U 19002D   24364.06215988  .00000243  00000+0  79853-4 0  9997
2 43925  86.3978 217.1634 0001918  84.8436 275.2978 14.34216940312260
IRIDIUM 169             
1 43926U 19002E   24363.39458171  .00000951  00000+0  30432-3 0  9991
2 43926  86.4223 249.0523 0001144  28.8926 331.2336 14.38607110313190
IRIDIUM 172             
1 43927U 19002F   24364.33489293  .00000469  00000+0  16041-3 0  9990
2 43927  86.3974 217.0554 0002068  85.3546 274.7886 14.34216288312305
IRIDIUM 175             
1 43928U 19002G   24363.77205235  .00001041  00000+0  16119-3 0  9993
2 43928  86.1523 179.5237 0001070 132.8520 227.2787 14.72254006320467
IRIDIUM 171             
1 43929U 19002H   24363.54841275 -.00000018  00000+0 -13452-4 0  9992
2 43929  86.3987 217.6307 0001919  99.1581 260.9832 14.34217647312183
IRIDIUM 170             
1 43930U 19002J   24364.46322917  .00002582  00000+0  40558-3 0  9995
2 43930  86.6102 217.0343 0002406  79.9373 280.2116 14.72240463320585
IRIDIUM 167             
1 43931U 19002K   24363.61183268  .00000438  00000+0  14920-3 0  9998
2 43931  86.3977 217.3752 0001725  96.8722 263.2670 14.34221974312197
IRIDIUM 181             
1 56726U 23068S   24363.54002693  .00001100  00000+0  31924-3 0  9995
2 56726  86.6868 280.0718 0002394  93.7207 266.4269 14.43570711 85171
IRIDIUM 177             
1 56727U 23068T   24363.57986033  .00000217  00000+0  25045-4 0  9994
2 56727  86.1976 223.0474 0001702  81.6782 278.4632 14.80216935 87130
IRIDIUM 174             
1 56728U 23068U   24363.57441804  .00003304  00000+0  43141-3 0  9993
2 56728  86.1982 223.1690 0002327  86.7136 273.4351 14.80219515 87132
IRIDIUM 178             
1 56729U 23068V   24363.56900224  .00000508  00000+0  63391-4 0  9992
2 56729  86.5774 249.8311 0002614  88.8915 271.2606 14.80217246 87136
IRIDIUM 179             
1 56730U 23068W   24364.44239347  .00003458  00000+0  45157-3 0  9999
2 56730  86.6783 256.0505 0002381  81.1708 278.9783 14.80236016 87261
